STARLINK-1723           
1 46333U 20062J   26065.04306947  .13667714  12453-4  35780-3 0  9991
2 46333  53.0308 340.3229 0005835 232.1279 127.9243 16.45467237304493
STARLINK-1738           
1 46336U 20062M   26065.19181534  .00837012  36081-3  12767-2 0  9990
2 46336  53.0264 298.4411 0004209 176.2957 183.8105 16.03883202305091
STARLINK-1687           
1 46541U 20070K   26064.70612140  .08516221  12316-4  91552-3 0  9995
2 46541  53.0223 110.6144 0002890 337.9696  22.1224 16.36687155300077
STARLINK-1712           
1 46581U 20070BB  26065.33334491  .00533051  13237-3  11212-2 0  9997
2 46581  53.0284  97.6531 0006405 354.6532 226.7870 15.98313221  5947
STARLINK-1955           
1 47556U 21009J   26065.25002315  .00532810  12617-3  13741-2 0  9993
2 47556  53.0346 342.7311 0003087 151.8036 109.8453 15.94625109  6034
STARLINK-2022           
1 47643U 21012Z   26065.25002315  .00467687  95258-4  14153-2 0  9994
2 47643  53.0132 355.2093 0002977 124.5101 118.5308 15.91597964  5980
WILDTRACKCUBE-SIMBA     
1 47941U 21022K   26065.29297773  .08759150  26401-5  74904-3 0  9997
2 47941  97.3721 347.4784 0005874 201.7073 158.3978 16.39544551275308
JILIN-1 GAOFEN 3D02     
1 49005U 21061C   26065.32040753  .02205521  23757-5  10317-2 0  9991
2 49005  97.2875 146.1314 0006476 262.0967  97.9588 16.21643473260273
STARLINK-3269           
1 50194U 21125AQ  26064.67265354  .09588046  12372-4  92034-3 0  9996
2 50194  53.1881 150.6040 0006595 323.2989  36.7605 16.37618117237688
LYNK TOWER 1            
1 52162U 22033F   26065.26794387  .00757667  33717-3  66419-3 0  9992
2 52162  97.2553 170.6899 0005914 208.7510 151.3450 16.13156593220699
STARLINK-3767           
1 52376U 22045AX  26065.18741537  .01054562  60615-3  15610-2 0  9990
2 52376  53.2112 190.1065 0001892 173.0671 187.0389 16.04450420215602
NUSAT-28 (ALICE LEE)    
1 52747U 22057R   26065.33235834  .00563801  13979-3  11946-2 0  9999
2 52747  97.5011 214.8648 0007705 286.6255  73.4175 15.98725245211511
CZ-6A DEB               
1 54572U 22151LY  26065.20091252  .06542974  64020-1  20120-1 0  9990
2 54572  98.5906 155.2350 0016456 295.8048  64.1526 15.95966983176336
STARLINK-5092           
1 55408U 23014T   26065.25002315  .00929402  37402-3  27786-2 0  9996
2 55408  69.9995  61.7866 0003599 266.0176  10.6111 15.92227727  5895
STARLINK-6201           
1 56486U 23064AQ  26065.25002315  .01196358  75728-3  22551-2 0  9993
2 56486  69.9951 123.2935 0004201 271.7675 209.0611 16.00797375  5860
OBJECT H                
1 57011U 23085H   26065.30087867  .00794305  26731-3  22950-2 0  9990
2 57011  97.4635 191.6104 0006730 293.3038  66.7528 15.93010922152033
