[{"OBJECT_NAME":"STARLINK-1723","OBJECT_ID":"2020-062J","EPOCH":"2026-03-06T01:02:01.202208","MEAN_MOTION":16.45467237,"ECCENTRICITY":0.00058356,"INCLINATION":53.0308,"RA_OF_ASC_NODE":340.3229,"ARG_OF_PERICENTER":232.1279,"MEAN_ANOMALY":127.9243,"EPHEMERIS_TYPE":0,"CLASSIFICATION_TYPE":"U","NORAD_CAT_ID":46333,"ELEMENT_SET_NO":999,"REV_AT_EPOCH":30449,"BSTAR":0.00035779686,"MEAN_MOTION_DOT":0.13667714,"MEAN_MOTION_DDOT":1.2453204e-5},{"OBJECT_NAME":"STARLINK-1738","OBJECT_ID":"2020-062M","EPOCH":"2026-03-06T04:36:12.845376","MEAN_MOTION":16.03883202,"ECCENTRICITY":0.00042091,"INCLINATION":53.0264,"RA_OF_ASC_NODE":298.4411,"ARG_OF_PERICENTER":176.2957,"MEAN_ANOMALY":183.8105,"EPHEMERIS_TYPE":0,"CLASSIFICATION_TYPE":"U","NORAD_CAT_ID":46336,"ELEMENT_SET_NO":999,"REV_AT_EPOCH":30509,"BSTAR":0.0012766927,"MEAN_MOTION_DOT":0.00837012,"MEAN_MOTION_DDOT":0.00036080615},{"OBJECT_NAME":"STARLINK-1687","OBJECT_ID":"2020-070K","EPOCH":"2026-03-05T16:56:48.888960","MEAN_MOTION":16.36687155,"ECCENTRICITY":0.00028901,"INCLINATION":53.0223,"RA_OF_ASC_NODE":110.6144,"ARG_OF_PERICENTER":337.9696,"MEAN_ANOMALY":22.1224,"EPHEMERIS_TYPE":0,"CLASSIFICATION_TYPE":"U","NORAD_CAT_ID":46541,"ELEMENT_SET_NO":999,"REV_AT_EPOCH":30007,"BSTAR":0.00091551974,"MEAN_MOTION_DOT":0.08516221,"MEAN_MOTION_DDOT":1.2315749e-5},{"OBJECT_NAME":"STARLINK-1712","OBJECT_ID":"2020-070BB","EPOCH":"2026-03-06T08:00:01.000224","MEAN_MOTION":15.98313221,"ECCENTRICITY":0.00064053,"INCLINATION":53.0284,"RA_OF_ASC_NODE":97.6531,"ARG_OF_PERICENTER":354.6532,"MEAN_ANOMALY":226.787,"EPHEMERIS_TYPE":0,"CLASSIFICATION_TYPE":"U","NORAD_CAT_ID":46581,"ELEMENT_SET_NO":999,"REV_AT_EPOCH":594,"BSTAR":0.0011211969,"MEAN_MOTION_DOT":0.00533051,"MEAN_MOTION_DDOT":0.00013236676},{"OBJECT_NAME":"STARLINK-1955","OBJECT_ID":"2021-009J","EPOCH":"2026-03-06T06:00:02.000160","MEAN_MOTION":15.94625109,"ECCENTRICITY":0.00030871,"INCLINATION":53.0346,"RA_OF_ASC_NODE":342.7311,"ARG_OF_PERICENTER":151.8036,"MEAN_ANOMALY":109.8453,"EPHEMERIS_TYPE":0,"CLASSIFICATION_TYPE":"U","NORAD_CAT_ID":47556,"ELEMENT_SET_NO":999,"REV_AT_EPOCH":603,"BSTAR":0.0013741159,"MEAN_MOTION_DOT":0.0053281,"MEAN_MOTION_DDOT":0.00012616813},{"OBJECT_NAME":"STARLINK-2022","OBJECT_ID":"2021-012Z","EPOCH":"2026-03-06T06:00:02.000160","MEAN_MOTION":15.91597964,"ECCENTRICITY":0.00029777,"INCLINATION":53.0132,"RA_OF_ASC_NODE":355.2093,"ARG_OF_PERICENTER":124.5101,"MEAN_ANOMALY":118.5308,"EPHEMERIS_TYPE":0,"CLASSIFICATION_TYPE":"U","NORAD_CAT_ID":47643,"ELEMENT_SET_NO":999,"REV_AT_EPOCH":598,"BSTAR":0.0014152607,"MEAN_MOTION_DOT":0.00467687,"MEAN_MOTION_DDOT":9.525839e-5},{"OBJECT_NAME":"WILDTRACKCUBE-SIMBA","OBJECT_ID":"2021-022K","EPOCH":"2026-03-06T07:01:53.275872","MEAN_MOTION":16.39544551,"ECCENTRICITY":0.0005874,"INCLINATION":97.3721,"RA_OF_ASC_NODE":347.4784,"ARG_OF_PERICENTER":201.7073,"MEAN_ANOMALY":158.3978,"EPHEMERIS_TYPE":0,"CLASSIFICATION_TYPE":"U","NORAD_CAT_ID":47941,"ELEMENT_SET_NO":999,"REV_AT_EPOCH":27530,"BSTAR":0.00074904,"MEAN_MOTION_DOT":0.0875915,"MEAN_MOTION_DDOT":2.6401e-6},{"OBJECT_NAME":"JILIN-1 GAOFEN 3D02","OBJECT_ID":"2021-061C","EPOCH":"2026-03-06T07:41:23.210592","MEAN_MOTION":16.21643473,"ECCENTRICITY":0.00064765,"INCLINATION":97.2875,"RA_OF_ASC_NODE":146.1314,"ARG_OF_PERICENTER":262.0967,"MEAN_ANOMALY":97.9588,"EPHEMERIS_TYPE":0,"CLASSIFICATION_TYPE":"U","NORAD_CAT_ID":49005,"ELEMENT_SET_NO":999,"REV_AT_EPOCH":26027,"BSTAR":0.0010316546,"MEAN_MOTION_DOT":0.02205521,"MEAN_MOTION_DDOT":2.375663e-6},{"OBJECT_NAME":"STARLINK-3269","OBJECT_ID":"2021-125AQ","EPOCH":"2026-03-05T16:08:37.265856","MEAN_MOTION":16.37618117,"ECCENTRICITY":0.00065957,"INCLINATION":53.1881,"RA_OF_ASC_NODE":150.604,"ARG_OF_PERICENTER":323.2989,"MEAN_ANOMALY":36.7605,"EPHEMERIS_TYPE":0,"CLASSIFICATION_TYPE":"U","NORAD_CAT_ID":50194,"ELEMENT_SET_NO":999,"REV_AT_EPOCH":23768,"BSTAR":0.00092033814,"MEAN_MOTION_DOT":0.09588046,"MEAN_MOTION_DDOT":1.2371714e-5},{"OBJECT_NAME":"LYNK TOWER 1","OBJECT_ID":"2022-033F","EPOCH":"2026-03-06T06:25:50.350368","MEAN_MOTION":16.13156593,"ECCENTRICITY":0.00059147,"INCLINATION":97.2553,"RA_OF_ASC_NODE":170.6899,"ARG_OF_PERICENTER":208.751,"MEAN_ANOMALY":151.345,"EPHEMERIS_TYPE":0,"CLASSIFICATION_TYPE":"U","NORAD_CAT_ID":52162,"ELEMENT_SET_NO":999,"REV_AT_EPOCH":22069,"BSTAR":0.00066419156,"MEAN_MOTION_DOT":0.00757667,"MEAN_MOTION_DDOT":0.00033716775},{"OBJECT_NAME":"STARLINK-3767","OBJECT_ID":"2022-045AX","EPOCH":"2026-03-06T04:29:52.687968","MEAN_MOTION":16.0445042,"ECCENTRICITY":0.00018924,"INCLINATION":53.2112,"RA_OF_ASC_NODE":190.1065,"ARG_OF_PERICENTER":173.0671,"MEAN_ANOMALY":187.0389,"EPHEMERIS_TYPE":0,"CLASSIFICATION_TYPE":"U","NORAD_CAT_ID":52376,"ELEMENT_SET_NO":999,"REV_AT_EPOCH":21560,"BSTAR":0.0015610468,"MEAN_MOTION_DOT":0.01054562,"MEAN_MOTION_DDOT":0.00060615166},{"OBJECT_NAME":"NUSAT-28 (ALICE LEE)","OBJECT_ID":"2022-057R","EPOCH":"2026-03-06T07:58:35.760576","MEAN_MOTION":15.98725245,"ECCENTRICITY":0.00077057,"INCLINATION":97.5011,"RA_OF_ASC_NODE":214.8648,"ARG_OF_PERICENTER":286.6255,"MEAN_ANOMALY":73.4175,"EPHEMERIS_TYPE":0,"CLASSIFICATION_TYPE":"U","NORAD_CAT_ID":52747,"ELEMENT_SET_NO":999,"REV_AT_EPOCH":21151,"BSTAR":0.0011946336,"MEAN_MOTION_DOT":0.00563801,"MEAN_MOTION_DDOT":0.00013978525},{"OBJECT_NAME":"CZ-6A DEB","OBJECT_ID":"2022-151LY","EPOCH":"2026-03-06T04:49:18.841728","MEAN_MOTION":15.95966983,"ECCENTRICITY":0.00164563,"INCLINATION":98.5906,"RA_OF_ASC_NODE":155.235,"ARG_OF_PERICENTER":295.8048,"MEAN_ANOMALY":64.1526,"EPHEMERIS_TYPE":0,"CLASSIFICATION_TYPE":"U","NORAD_CAT_ID":54572,"ELEMENT_SET_NO":999,"REV_AT_EPOCH":17633,"BSTAR":0.02011976,"MEAN_MOTION_DOT":0.06542974,"MEAN_MOTION_DDOT":0.064020342},{"OBJECT_NAME":"STARLINK-5092","OBJECT_ID":"2023-014T","EPOCH":"2026-03-06T06:00:02.000160","MEAN_MOTION":15.92227727,"ECCENTRICITY":0.00035994,"INCLINATION":69.9995,"RA_OF_ASC_NODE":61.7866,"ARG_OF_PERICENTER":266.0176,"MEAN_ANOMALY":10.6111,"EPHEMERIS_TYPE":0,"CLASSIFICATION_TYPE":"U","NORAD_CAT_ID":55408,"ELEMENT_SET_NO":999,"REV_AT_EPOCH":589,"BSTAR":0.0027786295,"MEAN_MOTION_DOT":0.00929402,"MEAN_MOTION_DDOT":0.00037401506},{"OBJECT_NAME":"STARLINK-6201","OBJECT_ID":"2023-064AQ","EPOCH":"2026-03-06T06:00:02.000160","MEAN_MOTION":16.00797375,"ECCENTRICITY":0.00042018,"INCLINATION":69.9951,"RA_OF_ASC_NODE":123.2935,"ARG_OF_PERICENTER":271.7675,"MEAN_ANOMALY":209.0611,"EPHEMERIS_TYPE":0,"CLASSIFICATION_TYPE":"U","NORAD_CAT_ID":56486,"ELEMENT_SET_NO":999,"REV_AT_EPOCH":586,"BSTAR":0.0022550513,"MEAN_MOTION_DOT":0.01196358,"MEAN_MOTION_DDOT":0.00075728311},{"OBJECT_NAME":"OBJECT H","OBJECT_ID":"2023-085H","EPOCH":"2026-03-06T07:13:15.917088","MEAN_MOTION":15.93010922,"ECCENTRICITY":0.00067308,"INCLINATION":97.4635,"RA_OF_ASC_NODE":191.6104,"ARG_OF_PERICENTER":293.3038,"MEAN_ANOMALY":66.7528,"EPHEMERIS_TYPE":0,"CLASSIFICATION_TYPE":"U","NORAD_CAT_ID":57011,"ELEMENT_SET_NO":999,"REV_AT_EPOCH":15203,"BSTAR":0.0022950046,"MEAN_MOTION_DOT":0.00794305,"MEAN_MOTION_DDOT":0.00026730531}]
